ORBCOMM FM06            
1 25118U 97084G   26165.99397318  .00001062  00000+0  32498-3 0  9991
2 25118  45.0143  63.2702 0001370 324.6742  49.6250 14.47557920494079
ORBCOMM FM04            
1 25159U 98007C   26165.95587219  .00000740  00000+0  29882-3 0  9994
2 25159 107.9627 164.8269 0041288 328.6087  31.2590 14.35737659476275
ORBCOMM FM19            
1 25415U 98046C   26164.97943182  .00000656  00000+0  25400-3 0  9996
2 25415  44.9938 258.8098 0004526 268.8726 260.9102 14.39490987456315
ORBCOMM FM20            
1 25416U 98046D   26165.58148919  .00000507  00000+0  21260-3 0  9995
2 25416  44.9939 263.8413 0002152 241.5153 118.5478 14.38063527456419
ORBCOMM FM27            
1 25481U 98053G   26166.17438811  .00000744  00000+0  28390-3 0  9998
2 25481  45.0066 344.9140 0000815 185.1611 174.9230 14.39137819449947
ORBCOMM FM32            
1 25982U 99065C   26166.27446847  .00000397  00000+0  17970-3 0  9993
2 25982  45.0137 182.2936 0004572  24.7461 335.3605 14.37128142386815
ORBCOMM FM109           
1 40086U 14040A   26166.11216496  .00000356  00000+0  11162-3 0  9995
2 40086  47.0031 101.2970 0001880 242.0215 118.0481 14.58842841634043
ORBCOMM FM110           
1 41182U 15081D   26165.98085328  .00000603  00000+0  16368-3 0  9999
2 41182  47.0033  11.8752 0002568  62.5466 297.5681 14.58877578557307
ORBCOMM FM118           
1 41183U 15081E   26165.94661219  .00002342  00000+0  53124-3 0  9998
2 41183  47.0047  12.3690 0002883  17.4423 342.6561 14.58877028557402
ORBCOMM FM112           
1 41184U 15081F   26166.01970502  .00000537  00000+0  14972-3 0  9998
2 41184  46.9994 280.4970 0003605 208.7435 151.3253 14.58901548558636
ORBCOMM FM113           
1 41185U 15081G   26165.58533963  .00000343  00000+0  10887-3 0  9992
2 41185  47.0013 282.9257 0002139 214.6325 145.4422 14.58856169558552
ORBCOMM FM108           
1 41187U 15081J   26165.54775661  .00000303  00000+0  10032-3 0  9991
2 41187  47.0035 194.6770 0002809 212.6751 147.3961 14.58867428559697
ORBCOMM FM117           
1 41188U 15081K   26165.78720742  .00000279  00000+0  95337-4 0  9992
2 41188  46.9995 192.1789 0003366 215.0215 145.0450 14.58863849559775
ORBCOMM FM116           
1 41189U 15081L   26166.04162955  .00000560  00000+0  15455-3 0  9994
2 41189  47.0026 280.7669 0000652  46.7508 313.3432 14.58880501558620
